{
    "links": {
        "self": "http://www.neowsapp.com/rest/v1/neo/3837855?api_key=iIulBulltgU6a56xZRHN4H3l9WmuAYTsLGpBGhQ2"
    },
    "id": "3837855",
    "neo_reference_id": "3837855",
    "name": "(2019 AL11)",
    "designation": "2019 AL11",
    "nasa_jpl_url": "http://ssd.jpl.nasa.gov/sbdb.cgi?sstr=3837855",
    "absolute_magnitude_h": 22.2,
    "estimated_diameter": {
        "kilometers": {
            "estimated_diameter_min": 0.096506147,
            "estimated_diameter_max": 0.2157943048
        },
        "meters": {
            "estimated_diameter_min": 96.5061469579,
            "estimated_diameter_max": 215.7943048444
        },
        "miles": {
            "estimated_diameter_min": 0.059966121,
            "estimated_diameter_max": 0.134088323
        },
        "feet": {
            "estimated_diameter_min": 316.6212271853,
            "estimated_diameter_max": 707.9865871058
        }
    },
    "is_potentially_hazardous_asteroid": false,
    "close_approach_data": [
        {
            "close_approach_date": "2019-02-02",
            "close_approach_date_full": "2019-Feb-02 20:40",
            "epoch_date_close_approach": 1549140000000,
            "relative_velocity": {
                "kilometers_per_second": "14.2493534212",
                "kilometers_per_hour": "51297.6723162829",
                "miles_per_hour": "31874.3786678592"
            },
            "miss_distance": {
                "astronomical": "0.1601191784",
                "lunar": "62.2863603976",
                "kilometers": "23953488.034790008",
                "miles": "14884007.2842297904"
            },
            "orbiting_body": "Earth"
        },
        {
            "close_approach_date": "2153-04-07",
            "close_approach_date_full": "2153-Apr-07 11:33",
            "epoch_date_close_approach": 5783311980000,
            "relative_velocity": {
                "kilometers_per_second": "4.0880811168",
                "kilometers_per_hour": "14717.0920204964",
                "miles_per_hour": "9144.6286501801"
            },
            "miss_distance": {
                "astronomical": "1.8788539521",
                "lunar": "730.8741873669",
                "kilometers": "281072549.275242027",
                "miles": "174650383.4737408926"
            },
            "orbiting_body": "Juptr"
        }
    ],
    "orbital_data": {
        "orbit_id": "2",
        "orbit_determination_date": "2019-01-17 07:07:47",
        "first_observation_date": "2019-01-11",
        "last_observation_date": "2019-01-17",
        "data_arc_in_days": 6,
        "observations_used": 18,
        "orbit_uncertainty": "9",
        "minimum_orbit_intersection": ".085992",
        "jupiter_tisserand_invariant": "3.565",
        "epoch_osculation": "2458495.5",
        "eccentricity": ".6193415319426095",
        "semi_major_axis": "1.998740324189687",
        "inclination": "9.010166087075877",
        "ascending_node_longitude": "49.52762165054526",
        "orbital_period": "1032.126641738955",
        "perihelion_distance": ".7608374298505781",
        "perihelion_argument": "144.6839940529982",
        "aphelion_distance": "3.236643218528795",
        "perihelion_time": "2458557.103734022237",
        "mean_anomaly": "338.5129621199969",
        "mean_motion": ".3487944070443353",
        "equinox": "J2000",
        "orbit_class": {
            "orbit_class_type": "APO",
            "orbit_class_description": "Near-Earth asteroid orbits which cross the Earth’s orbit similar to that of 1862 Apollo",
            "orbit_class_range": "a (semi-major axis) > 1.0 AU; q (perihelion) < 1.017 AU"
        }
    },
    "is_sentry_object": false
}